ONEWEB-0205             
1 48226U 21031S   26168.06162419 -.00000377  00000+0 -10504-2 0  9991
2 48226  87.8972 289.7217 0002153 106.3632 253.7734 13.14502566248258
ONEWEB-0206             
1 48227U 21031T   26167.88244603  .00000069  00000+0  15107-3 0  9998
2 48227  87.8970 289.7587 0001792  96.5051 263.6283 13.14503591248180
ONEWEB-0182             
1 48228U 21031U   26167.87769381  .00000088  00000+0  20220-3 0  9996
2 48228  87.8965 289.7673 0002051  95.3876 264.7488 13.14502430248395
ONEWEB-0186             
1 48229U 21031V   26167.88879059 -.00000144  00000+0 -42346-3 0  9990
2 48229  87.8975 289.7555 0002022 102.4705 257.6651 13.14502650248347
ONEWEB-0181             
1 48230U 21031W   26167.86659438  .00000201  00000+0  50888-3 0  9999
2 48230  87.8953 289.7896 0001993 106.4640 253.6709 13.14503464248198
ONEWEB-0188             
1 48231U 21031X   26168.05687862 -.00000222  00000+0 -63300-3 0  9992
2 48231  87.8956 289.7507 0001992 101.0824 259.0530 13.14504039248129
ONEWEB-0220             
1 48232U 21031Y   26168.09652152  .00000246  00000+0  62928-3 0  9990
2 48232  87.8973 289.7159 0002239 104.1464 255.9915 13.14502372248390
ONEWEB-0165             
1 48233U 21031Z   26168.04895315 -.00000194  00000+0 -55900-3 0  9992
2 48233  87.8966 289.7381 0001980 112.1703 247.9637 13.14501203248346
ONEWEB-0199             
1 48234U 21031AA  26167.88086274  .00000084  00000+0  19322-3 0  9994
2 48234  87.8973 289.7576 0001816  95.5104 264.6233 13.14502987248223
ONEWEB-0203             
1 48235U 21031AB  26167.71911719  .00000280  00000+0  72173-3 0  9999
2 48235  87.8971 289.7932 0001745 102.7954 257.3371 13.14503210248214
ONEWEB-0197             
1 48236U 21031AC  26168.07418634  .00000034  00000+0  57228-4 0  9990
2 48236  87.8960 289.7088 0002190  97.2121 262.9258 13.14504317248174
ONEWEB-0194             
1 48237U 21031AD  26168.05371398 -.00000184  00000+0 -53199-3 0  9994
2 48237  87.8966 289.7347 0001717  98.2692 261.8632 13.14502556248343
ONEWEB-0193             
1 48238U 21031AE  26168.06956850 -.00000122  00000+0 -36413-3 0  9990
2 48238  87.8964 289.7221 0001539  94.6438 265.4868 13.14502934248298
ONEWEB-0191             
1 48239U 21031AF  26167.85232328  .00000064  00000+0  13697-3 0  9996
2 48239  87.8972 289.7640 0002062  96.2889 263.8476 13.14502746248123
ONEWEB-0195             
1 48240U 21031AG  26168.05767075 -.00000185  00000+0 -53295-3 0  9997
2 48240  87.8970 289.7235 0002060 111.6418 248.4932 13.14501848248130
ONEWEB-0201             
1 48241U 21031AH  26168.04590725 -.00000106  00000+0 -31937-3 0  9995
2 48241  87.8964 289.7421 0002250  97.8566 262.2819 13.14504508248360
