[{"OBJECT_NAME":"ONEWEB-0205","OBJECT_ID":"2021-031S","EPOCH":"2026-06-17T01:28:44.330016","MEAN_MOTION":13.14502566,"ECCENTRICITY":0.0002153,"INCLINATION":87.8972,"RA_OF_ASC_NODE":289.7217,"ARG_OF_PERICENTER":106.3632,"MEAN_ANOMALY":253.7734,"EPHEMERIS_TYPE":0,"CLASSIFICATION_TYPE":"U","NORAD_CAT_ID":48226,"ELEMENT_SET_NO":999,"REV_AT_EPOCH":24825,"BSTAR":-0.0010504,"MEAN_MOTION_DOT":-3.77e-06,"MEAN_MOTION_DDOT":0.0},{"OBJECT_NAME":"ONEWEB-0206","OBJECT_ID":"2021-031T","EPOCH":"2026-06-16T21:10:43.336992","MEAN_MOTION":13.14503591,"ECCENTRICITY":0.0001792,"INCLINATION":87.897,"RA_OF_ASC_NODE":289.7587,"ARG_OF_PERICENTER":96.5051,"MEAN_ANOMALY":263.6283,"EPHEMERIS_TYPE":0,"CLASSIFICATION_TYPE":"U","NORAD_CAT_ID":48227,"ELEMENT_SET_NO":999,"REV_AT_EPOCH":24818,"BSTAR":0.00015107,"MEAN_MOTION_DOT":6.9e-07,"MEAN_MOTION_DDOT":0.0},{"OBJECT_NAME":"ONEWEB-0182","OBJECT_ID":"2021-031U","EPOCH":"2026-06-16T21:03:52.745184","MEAN_MOTION":13.1450243,"ECCENTRICITY":0.0002051,"INCLINATION":87.8965,"RA_OF_ASC_NODE":289.7673,"ARG_OF_PERICENTER":95.3876,"MEAN_ANOMALY":264.7488,"EPHEMERIS_TYPE":0,"CLASSIFICATION_TYPE":"U","NORAD_CAT_ID":48228,"ELEMENT_SET_NO":999,"REV_AT_EPOCH":24839,"BSTAR":0.00020219999999999998,"MEAN_MOTION_DOT":8.8e-07,"MEAN_MOTION_DDOT":0.0},{"OBJECT_NAME":"ONEWEB-0186","OBJECT_ID":"2021-031V","EPOCH":"2026-06-16T21:19:51.506976","MEAN_MOTION":13.1450265,"ECCENTRICITY":0.0002022,"INCLINATION":87.8975,"RA_OF_ASC_NODE":289.7555,"ARG_OF_PERICENTER":102.4705,"MEAN_ANOMALY":257.6651,"EPHEMERIS_TYPE":0,"CLASSIFICATION_TYPE":"U","NORAD_CAT_ID":48229,"ELEMENT_SET_NO":999,"REV_AT_EPOCH":24834,"BSTAR":-0.00042346,"MEAN_MOTION_DOT":-1.44e-06,"MEAN_MOTION_DDOT":0.0},{"OBJECT_NAME":"ONEWEB-0181","OBJECT_ID":"2021-031W","EPOCH":"2026-06-16T20:47:53.754432","MEAN_MOTION":13.14503464,"ECCENTRICITY":0.0001993,"INCLINATION":87.8953,"RA_OF_ASC_NODE":289.7896,"ARG_OF_PERICENTER":106.464,"MEAN_ANOMALY":253.6709,"EPHEMERIS_TYPE":0,"CLASSIFICATION_TYPE":"U","NORAD_CAT_ID":48230,"ELEMENT_SET_NO":999,"REV_AT_EPOCH":24819,"BSTAR":0.00050888,"MEAN_MOTION_DOT":2.01e-06,"MEAN_MOTION_DDOT":0.0},{"OBJECT_NAME":"ONEWEB-0188","OBJECT_ID":"2021-031X","EPOCH":"2026-06-17T01:21:54.312768","MEAN_MOTION":13.14504039,"ECCENTRICITY":0.0001992,"INCLINATION":87.8956,"RA_OF_ASC_NODE":289.7507,"ARG_OF_PERICENTER":101.0824,"MEAN_ANOMALY":259.053,"EPHEMERIS_TYPE":0,"CLASSIFICATION_TYPE":"U","NORAD_CAT_ID":48231,"ELEMENT_SET_NO":999,"REV_AT_EPOCH":24812,"BSTAR":-0.000633,"MEAN_MOTION_DOT":-2.22e-06,"MEAN_MOTION_DDOT":0.0},{"OBJECT_NAME":"ONEWEB-0220","OBJECT_ID":"2021-031Y","EPOCH":"2026-06-17T02:18:59.459328","MEAN_MOTION":13.14502372,"ECCENTRICITY":0.0002239,"INCLINATION":87.8973,"RA_OF_ASC_NODE":289.7159,"ARG_OF_PERICENTER":104.1464,"MEAN_ANOMALY":255.9915,"EPHEMERIS_TYPE":0,"CLASSIFICATION_TYPE":"U","NORAD_CAT_ID":48232,"ELEMENT_SET_NO":999,"REV_AT_EPOCH":24839,"BSTAR":0.00062928,"MEAN_MOTION_DOT":2.46e-06,"MEAN_MOTION_DDOT":0.0},{"OBJECT_NAME":"ONEWEB-0165","OBJECT_ID":"2021-031Z","EPOCH":"2026-06-17T01:10:29.552160","MEAN_MOTION":13.14501203,"ECCENTRICITY":0.000198,"INCLINATION":87.8966,"RA_OF_ASC_NODE":289.7381,"ARG_OF_PERICENTER":112.1703,"MEAN_ANOMALY":247.9637,"EPHEMERIS_TYPE":0,"CLASSIFICATION_TYPE":"U","NORAD_CAT_ID":48233,"ELEMENT_SET_NO":999,"REV_AT_EPOCH":24834,"BSTAR":-0.000559,"MEAN_MOTION_DOT":-1.94e-06,"MEAN_MOTION_DDOT":0.0},{"OBJECT_NAME":"ONEWEB-0199","OBJECT_ID":"2021-031AA","EPOCH":"2026-06-16T21:08:26.540736","MEAN_MOTION":13.14502987,"ECCENTRICITY":0.0001816,"INCLINATION":87.8973,"RA_OF_ASC_NODE":289.7576,"ARG_OF_PERICENTER":95.5104,"MEAN_ANOMALY":264.6233,"EPHEMERIS_TYPE":0,"CLASSIFICATION_TYPE":"U","NORAD_CAT_ID":48234,"ELEMENT_SET_NO":999,"REV_AT_EPOCH":24822,"BSTAR":0.00019322,"MEAN_MOTION_DOT":8.4e-07,"MEAN_MOTION_DDOT":0.0},{"OBJECT_NAME":"ONEWEB-0203","OBJECT_ID":"2021-031AB","EPOCH":"2026-06-16T17:15:31.725216","MEAN_MOTION":13.1450321,"ECCENTRICITY":0.0001745,"INCLINATION":87.8971,"RA_OF_ASC_NODE":289.7932,"ARG_OF_PERICENTER":102.7954,"MEAN_ANOMALY":257.3371,"EPHEMERIS_TYPE":0,"CLASSIFICATION_TYPE":"U","NORAD_CAT_ID":48235,"ELEMENT_SET_NO":999,"REV_AT_EPOCH":24821,"BSTAR":0.00072173,"MEAN_MOTION_DOT":2.8e-06,"MEAN_MOTION_DDOT":0.0},{"OBJECT_NAME":"ONEWEB-0197","OBJECT_ID":"2021-031AC","EPOCH":"2026-06-17T01:46:49.699776","MEAN_MOTION":13.14504317,"ECCENTRICITY":0.000219,"INCLINATION":87.896,"RA_OF_ASC_NODE":289.7088,"ARG_OF_PERICENTER":97.2121,"MEAN_ANOMALY":262.9258,"EPHEMERIS_TYPE":0,"CLASSIFICATION_TYPE":"U","NORAD_CAT_ID":48236,"ELEMENT_SET_NO":999,"REV_AT_EPOCH":24817,"BSTAR":5.7228e-05,"MEAN_MOTION_DOT":3.4e-07,"MEAN_MOTION_DDOT":0.0},{"OBJECT_NAME":"ONEWEB-0194","OBJECT_ID":"2021-031AD","EPOCH":"2026-06-17T01:17:20.887872","MEAN_MOTION":13.14502556,"ECCENTRICITY":0.0001717,"INCLINATION":87.8966,"RA_OF_ASC_NODE":289.7347,"ARG_OF_PERICENTER":98.2692,"MEAN_ANOMALY":261.8632,"EPHEMERIS_TYPE":0,"CLASSIFICATION_TYPE":"U","NORAD_CAT_ID":48237,"ELEMENT_SET_NO":999,"REV_AT_EPOCH":24834,"BSTAR":-0.00053199,"MEAN_MOTION_DOT":-1.84e-06,"MEAN_MOTION_DDOT":0.0},{"OBJECT_NAME":"ONEWEB-0193","OBJECT_ID":"2021-031AE","EPOCH":"2026-06-17T01:40:10.718400","MEAN_MOTION":13.14502934,"ECCENTRICITY":0.0001539,"INCLINATION":87.8964,"RA_OF_ASC_NODE":289.7221,"ARG_OF_PERICENTER":94.6438,"MEAN_ANOMALY":265.4868,"EPHEMERIS_TYPE":0,"CLASSIFICATION_TYPE":"U","NORAD_CAT_ID":48238,"ELEMENT_SET_NO":999,"REV_AT_EPOCH":24829,"BSTAR":-0.00036413,"MEAN_MOTION_DOT":-1.22e-06,"MEAN_MOTION_DDOT":0.0},{"OBJECT_NAME":"ONEWEB-0191","OBJECT_ID":"2021-031AF","EPOCH":"2026-06-16T20:27:20.731392","MEAN_MOTION":13.14502746,"ECCENTRICITY":0.0002062,"INCLINATION":87.8972,"RA_OF_ASC_NODE":289.764,"ARG_OF_PERICENTER":96.2889,"MEAN_ANOMALY":263.8476,"EPHEMERIS_TYPE":0,"CLASSIFICATION_TYPE":"U","NORAD_CAT_ID":48239,"ELEMENT_SET_NO":999,"REV_AT_EPOCH":24812,"BSTAR":0.00013697,"MEAN_MOTION_DOT":6.4e-07,"MEAN_MOTION_DDOT":0.0},{"OBJECT_NAME":"ONEWEB-0195","OBJECT_ID":"2021-031AG","EPOCH":"2026-06-17T01:23:02.752800","MEAN_MOTION":13.14501848,"ECCENTRICITY":0.000206,"INCLINATION":87.897,"RA_OF_ASC_NODE":289.7235,"ARG_OF_PERICENTER":111.6418,"MEAN_ANOMALY":248.4932,"EPHEMERIS_TYPE":0,"CLASSIFICATION_TYPE":"U","NORAD_CAT_ID":48240,"ELEMENT_SET_NO":999,"REV_AT_EPOCH":24813,"BSTAR":-0.00053295,"MEAN_MOTION_DOT":-1.85e-06,"MEAN_MOTION_DDOT":0.0},{"OBJECT_NAME":"ONEWEB-0201","OBJECT_ID":"2021-031AH","EPOCH":"2026-06-17T01:06:06.386400","MEAN_MOTION":13.14504508,"ECCENTRICITY":0.000225,"INCLINATION":87.8964,"RA_OF_ASC_NODE":289.7421,"ARG_OF_PERICENTER":97.8566,"MEAN_ANOMALY":262.2819,"EPHEMERIS_TYPE":0,"CLASSIFICATION_TYPE":"U","NORAD_CAT_ID":48241,"ELEMENT_SET_NO":999,"REV_AT_EPOCH":24836,"BSTAR":-0.00031937,"MEAN_MOTION_DOT":-1.06e-06,"MEAN_MOTION_DDOT":0.0}]